{
  "type": "FeatureCollection",
  "features": [
    {
      "type": "Feature",
      "properties": {
        "norad_id": 66536,
        "name": "STARLINK-35640",
        "group": "last-30-days",
        "lat": -42.83189474028437,
        "lon": -54.07666898083951,
        "alt_km": 416.63266578922594,
        "timestamp": "2025-12-16T19:34:23.016304+00:00",
        "meta_object_name": "STARLINK-35640",
        "meta_object_id": "2025-265W",
        "meta_epoch": "2025-12-15T11:28:41.673504",
        "meta_mean_motion": 15.50603447,
        "meta_eccentricity": 0.00019434,
        "meta_inclination": 43.0009,
        "meta_ra_of_asc_node": 37.9105,
        "meta_arg_of_pericenter": 260.1885,
        "meta_mean_anomaly": 99.8756,
        "meta_ephemeris_type": 0,
        "meta_classification_type": "U",
        "meta_norad_cat_id": 66536,
        "meta_element_set_no": 999,
        "meta_rev_at_epoch": 418,
        "meta_bstar": 0.00084769573,
        "meta_mean_motion_dot": 0.0004975,
        "meta_mean_motion_ddot": 0,
        "tle_line1": "1 66536U 25265W   25349.47826011  .00049750  00000+0  84770-3 0  9991",
        "tle_line2": "2 66536  43.0009  37.9105 0001943 260.1885  99.8756 15.50603447  4188"
      },
      "geometry": {
        "type": "Point",
        "coordinates": [
          -54.07666898083951,
          -42.83189474028437
        ]
      }
    },
    {
      "type": "Feature",
      "properties": {
        "norad_id": 66537,
        "name": "STARLINK-35582",
        "group": "last-30-days",
        "lat": -42.66283482798364,
        "lon": -51.38443800281437,
        "alt_km": 416.61507995664306,
        "timestamp": "2025-12-16T19:34:23.016314+00:00",
        "meta_object_name": "STARLINK-35582",
        "meta_object_id": "2025-265X",
        "meta_epoch": "2025-12-15T11:28:12.046944",
        "meta_mean_motion": 15.5060388,
        "meta_eccentricity": 0.00018226,
        "meta_inclination": 43.0014,
        "meta_ra_of_asc_node": 37.9075,
        "meta_arg_of_pericenter": 267.2354,
        "meta_mean_anomaly": 92.8298,
        "meta_ephemeris_type": 0,
        "meta_classification_type": "U",
        "meta_norad_cat_id": 66537,
        "meta_element_set_no": 999,
        "meta_rev_at_epoch": 418,
        "meta_bstar": 0.001040946,
        "meta_mean_motion_dot": 0.0006126,
        "meta_mean_motion_ddot": 0,
        "tle_line1": "1 66537U 25265X   25349.47791721  .00061260  00000+0  10409-2 0  9998",
        "tle_line2": "2 66537  43.0014  37.9075 0001822 267.2354  92.8298 15.50603880  4181"
      },
      "geometry": {
        "type": "Point",
        "coordinates": [
          -51.38443800281437,
          -42.66283482798364
        ]
      }
    },
    {
      "type": "Feature",
      "properties": {
        "norad_id": 66538,
        "name": "STARLINK-35577",
        "group": "last-30-days",
        "lat": -42.43496413984072,
        "lon": -48.75538300904436,
        "alt_km": 416.48326379565515,
        "timestamp": "2025-12-16T19:34:23.016325+00:00",
        "meta_object_name": "STARLINK-35577",
        "meta_object_id": "2025-265Y",
        "meta_epoch": "2025-12-15T11:27:42.391872",
        "meta_mean_motion": 15.50614446,
        "meta_eccentricity": 0.00019895,
        "meta_inclination": 43.0014,
        "meta_ra_of_asc_node": 37.9052,
        "meta_arg_of_pericenter": 276.9417,
        "meta_mean_anomaly": 83.1217,
        "meta_ephemeris_type": 0,
        "meta_classification_type": "U",
        "meta_norad_cat_id": 66538,
        "meta_element_set_no": 999,
        "meta_rev_at_epoch": 418,
        "meta_bstar": 0.0010187959,
        "meta_mean_motion_dot": 0.00059963,
        "meta_mean_motion_ddot": 0,
        "tle_line1": "1 66538U 25265Y   25349.47757398  .00059963  00000+0  10188-2 0  9992",
        "tle_line2": "2 66538  43.0014  37.9052 0001989 276.9417  83.1217 15.50614446  4182"
      },
      "geometry": {
        "type": "Point",
        "coordinates": [
          -48.75538300904436,
          -42.43496413984072
        ]
      }
    },
    {
      "type": "Feature",
      "properties": {
        "norad_id": 66539,
        "name": "STARLINK-35697",
        "group": "last-30-days",
        "lat": -42.16874864112388,
        "lon": -46.325346559241325,
        "alt_km": 416.66149322331785,
        "timestamp": "2025-12-16T19:34:23.016335+00:00",
        "meta_object_name": "STARLINK-35697",
        "meta_object_id": "2025-265Z",
        "meta_epoch": "2025-12-15T12:59:58.172928",
        "meta_mean_motion": 15.50613048,
        "meta_eccentricity": 0.00018226,
        "meta_inclination": 43.0013,
        "meta_ra_of_asc_node": 37.5261,
        "meta_arg_of_pericenter": 271.4365,
        "meta_mean_anomaly": 88.6287,
        "meta_ephemeris_type": 0,
        "meta_classification_type": "U",
        "meta_norad_cat_id": 66539,
        "meta_element_set_no": 999,
        "meta_rev_at_epoch": 419,
        "meta_bstar": 0.0008740615,
        "meta_mean_motion_dot": 0.00051335,
        "meta_mean_motion_ddot": 0,
        "tle_line1": "1 66539U 25265Z   25349.54164552  .00051335  00000+0  87406-3 0  9998",
        "tle_line2": "2 66539  43.0013  37.5261 0001822 271.4365  88.6287 15.50613048  4193"
      },
      "geometry": {
        "type": "Point",
        "coordinates": [
          -46.325346559241325,
          -42.16874864112388
        ]
      }
    },
    {
      "type": "Feature",
      "properties": {
        "norad_id": 66540,
        "name": "STARLINK-35818",
        "group": "last-30-days",
        "lat": -41.84263285561557,
        "lon": -43.86284590936707,
        "alt_km": 416.8304677658398,
        "timestamp": "2025-12-16T19:34:23.016346+00:00",
        "meta_object_name": "STARLINK-35818",
        "meta_object_id": "2025-265AA",
        "meta_epoch": "2025-12-15T12:59:28.632768",
        "meta_mean_motion": 15.50589917,
        "meta_eccentricity": 0.00015654,
        "meta_inclination": 43.0004,
        "meta_ra_of_asc_node": 37.5221,
        "meta_arg_of_pericenter": 265.6235,
        "meta_mean_anomaly": 94.4447,
        "meta_ephemeris_type": 0,
        "meta_classification_type": "U",
        "meta_norad_cat_id": 66540,
        "meta_element_set_no": 999,
        "meta_rev_at_epoch": 419,
        "meta_bstar": 0.0010358677,
        "meta_mean_motion_dot": 0.00060926,
        "meta_mean_motion_ddot": 0,
        "tle_line1": "1 66540U 25265AA  25349.54130362  .00060926  00000+0  10359-2 0  9990",
        "tle_line2": "2 66540  43.0004  37.5221 0001565 265.6235  94.4447 15.50589917  4196"
      },
      "geometry": {
        "type": "Point",
        "coordinates": [
          -43.86284590936707,
          -41.84263285561557
        ]
      }
    },
    {
      "type": "Feature",
      "properties": {
        "norad_id": 66541,
        "name": "STARLINK-35796",
        "group": "last-30-days",
        "lat": 2.917985171670552,
        "lon": -152.809963524574,
        "alt_km": 443.6661066277875,
        "timestamp": "2025-12-16T19:34:23.016358+00:00",
        "meta_object_name": "STARLINK-35796",
        "meta_object_id": "2025-265AB",
        "meta_epoch": "2025-12-15T22:00:01.999584",
        "meta_mean_motion": 15.4069203,
        "meta_eccentricity": 0.00010521,
        "meta_inclination": 43.0011,
        "meta_ra_of_asc_node": 35.5065,
        "meta_arg_of_pericenter": 285.1597,
        "meta_mean_anomaly": 299.0224,
        "meta_ephemeris_type": 0,
        "meta_classification_type": "U",
        "meta_norad_cat_id": 66541,
        "meta_element_set_no": 999,
        "meta_rev_at_epoch": 550,
        "meta_bstar": 0.00040668199,
        "meta_mean_motion_dot": 0.00016717,
        "meta_mean_motion_ddot": 0,
        "tle_line1": "1 66541U 25265AB  25349.91668981  .00016717  00000+0  40668-3 0  9991",
        "tle_line2": "2 66541  43.0011  35.5065 0001052 285.1597 299.0224 15.40692030  5500"
      },
      "geometry": {
        "type": "Point",
        "coordinates": [
          -152.809963524574,
          2.917985171670552
        ]
      }
    },
    {
      "type": "Feature",
      "properties": {
        "norad_id": 66542,
        "name": "STARLINK-35833",
        "group": "last-30-days",
        "lat": -27.915211730527705,
        "lon": -115.14053448959778,
        "alt_km": 452.470244911412,
        "timestamp": "2025-12-16T19:34:23.016369+00:00",
        "meta_object_name": "STARLINK-35833",
        "meta_object_id": "2025-265AC",
        "meta_epoch": "2025-12-15T22:00:01.999584",
        "meta_mean_motion": 15.42038287,
        "meta_eccentricity": 8.424e-05,
        "meta_inclination": 43.0012,
        "meta_ra_of_asc_node": 35.3886,
        "meta_arg_of_pericenter": 284.514,
        "meta_mean_anomaly": 348.6778,
        "meta_ephemeris_type": 0,
        "meta_classification_type": "U",
        "meta_norad_cat_id": 66542,
        "meta_element_set_no": 999,
        "meta_rev_at_epoch": 550,
        "meta_bstar": -0.046148894,
        "meta_mean_motion_dot": -0.01815668,
        "meta_mean_motion_ddot": 0,
        "tle_line1": "1 66542U 25265AC  25349.91668981 -.01815668  00000+0 -46149-1 0  9995",
        "tle_line2": "2 66542  43.0012  35.3886 0000842 284.5140 348.6778 15.42038287  5509"
      },
      "geometry": {
        "type": "Point",
        "coordinates": [
          -115.14053448959778,
          -27.915211730527705
        ]
      }
    }
  ]
}